IRIDIUM 39              
1 25042U 97069D   26025.64258409  .00001237  00000+0  31659-3 0  9996
2 25042  86.3926 115.8051 0015528 284.4664  75.4817 14.49588797481181
IRIDIUM 38              
1 25043U 97069E   26025.73651609  .00000912  00000+0  29294-3 0  9997
2 25043  86.4002 139.6123 0004040  92.1399 268.0262 14.38371542477947
IRIDIUM 42              
1 25077U 97077A   26025.73866139  .00000815  00000+0  27070-3 0  9991
2 25077  86.4010 146.0556 0002875  98.8058 261.3465 14.36581992473143
IRIDIUM 44              
1 25078U 97077B   26025.71706715  .00000670  00000+0  20453-3 0  9990
2 25078  86.3989 127.4011 0003118  59.1073 301.0432 14.40478158475732
IRIDIUM 45              
1 25104U 97082A   26025.74274076  .00034712  00000+0  91278-3 0  9996
2 25104  86.3543 298.9477 0090570 209.7650 149.8433 15.34250064486010
IRIDIUM 24              
1 25105U 97082B   26025.81679376  .00001034  00000+0  30662-3 0  9998
2 25105  86.3939 345.8503 0013421  66.3119 293.9488 14.42386672475303
IRIDIUM 51              
1 25262U 98018A   26025.76021933  .00263678  00000+0  16512-2 0  9997
2 25262  86.3687 303.4549 0044997  96.8981 263.7413 15.74671946481547
IRIDIUM 57              
1 25273U 98019B   26025.53029970  .00000551  00000+0  18253-3 0  9998
2 25273  86.3919  52.0116 0002348  89.4083 270.7383 14.36089572456696
